IRIDIUM 63              
1 25286U 98021B   25282.41143116  .00000614  00000+0  20191-3 0  9999
2 25286  86.4014  34.1862 0001927  93.2985 266.8432 14.36652747440247
IRIDIUM 69              
1 25319U 98026A   25282.42027617  .00000829  00000+0  25149-3 0  9995
2 25319  86.3983  47.1112 0003308  46.6178 313.5296 14.41099061439517
IRIDIUM 71              
1 25320U 98026B   25282.41271242  .00000455  00000+0  13463-3 0  9992
2 25320  86.3991  41.7915 0004179  80.9625 279.2048 14.41255156440046
IRIDIUM 73              
1 25344U 98032C   25282.47812963  .00000760  00000+0  18374-3 0  9997
2 25344  86.4468 358.2863 0001938  76.3360 283.8062 14.51869962447147
IRIDIUM 82              
1 25467U 98051A   25282.38023487  .00051893  00000+0  12137-2 0  9992
2 25467  86.3644  53.3064 0073110 221.2303 138.3416 15.39119011441470
